{
  "type": "FeatureCollection",
  "features": [
    {
      "type": "Feature",
      "properties": {
        "norad_id": 66174,
        "name": "HTV-X1",
        "group": "stations",
        "lat": -20.93452171020165,
        "lon": -92.85640032586136,
        "alt_km": 420.55809689817943,
        "timestamp": "2025-12-27T11:23:18.614788+00:00",
        "meta_object_name": "HTV-X1",
        "meta_object_id": "2025-241A",
        "meta_epoch": "2025-12-26T20:34:16.428576",
        "meta_mean_motion": 15.49855582,
        "meta_eccentricity": 0.00032301,
        "meta_inclination": 51.6319,
        "meta_ra_of_asc_node": 72.5609,
        "meta_arg_of_pericenter": 307.0606,
        "meta_mean_anomaly": 53.0087,
        "meta_ephemeris_type": 0,
        "meta_classification_type": "U",
        "meta_norad_cat_id": 66174,
        "meta_element_set_no": 999,
        "meta_rev_at_epoch": 51,
        "meta_bstar": 0.00027091986,
        "meta_mean_motion_dot": 0.00014958,
        "meta_mean_motion_ddot": 0,
        "tle_line1": "1 66174U 25241A   25360.85713459  .00014958  00000+0  27092-3 0  9995",
        "tle_line2": "2 66174  51.6319  72.5609 0003230 307.0606  53.0087 15.49855582   511"
      },
      "geometry": {
        "type": "Point",
        "coordinates": [
          -92.85640032586136,
          -20.93452171020165
        ]
      }
    },
    {
      "type": "Feature",
      "properties": {
        "norad_id": 66515,
        "name": "SZ-21 MODULE",
        "group": "stations",
        "lat": -40.72404040388663,
        "lon": -176.845472221745,
        "alt_km": 380.8077651711337,
        "timestamp": "2025-12-27T11:23:18.614798+00:00",
        "meta_object_name": "SZ-21 MODULE",
        "meta_object_id": "2025-246C",
        "meta_epoch": "2025-12-27T04:08:50.820288",
        "meta_mean_motion": 15.63263847,
        "meta_eccentricity": 0.0004159,
        "meta_inclination": 41.4764,
        "meta_ra_of_asc_node": 287.9534,
        "meta_arg_of_pericenter": 338.5057,
        "meta_mean_anomaly": 21.5607,
        "meta_ephemeris_type": 0,
        "meta_classification_type": "U",
        "meta_norad_cat_id": 66515,
        "meta_element_set_no": 999,
        "meta_rev_at_epoch": 670,
        "meta_bstar": 0.00034324,
        "meta_mean_motion_dot": 0.00032194,
        "meta_mean_motion_ddot": 0,
        "tle_line1": "1 66515U 25246C   25361.17281042  .00032194  00000+0  34324-3 0  9991",
        "tle_line2": "2 66515  41.4764 287.9534 0004159 338.5057  21.5607 15.63263847  6708"
      },
      "geometry": {
        "type": "Point",
        "coordinates": [
          -176.845472221745,
          -40.72404040388663
        ]
      }
    },
    {
      "type": "Feature",
      "properties": {
        "norad_id": 66645,
        "name": "SHENZHOU-22",
        "group": "stations",
        "lat": 5.428356748982503,
        "lon": 101.03484792861349,
        "alt_km": 381.46862720820536,
        "timestamp": "2025-12-27T11:23:18.614811+00:00",
        "meta_object_name": "SHENZHOU-22",
        "meta_object_id": "2025-272A",
        "meta_epoch": "2025-12-26T22:21:45.161280",
        "meta_mean_motion": 15.59735336,
        "meta_eccentricity": 0.00087329,
        "meta_inclination": 41.4675,
        "meta_ra_of_asc_node": 290.5114,
        "meta_arg_of_pericenter": 154.941,
        "meta_mean_anomaly": 205.1854,
        "meta_ephemeris_type": 0,
        "meta_classification_type": "U",
        "meta_norad_cat_id": 66645,
        "meta_element_set_no": 999,
        "meta_rev_at_epoch": 26598,
        "meta_bstar": 0.00023104085,
        "meta_mean_motion_dot": 0.00018761,
        "meta_mean_motion_ddot": 0,
        "tle_line1": "1 66645U 25272A   25360.93177270  .00018761  00000+0  23104-3 0  9992",
        "tle_line2": "2 66645  41.4675 290.5114 0008732 154.9410 205.1854 15.59735336265984"
      },
      "geometry": {
        "type": "Point",
        "coordinates": [
          101.03484792861349,
          5.428356748982503
        ]
      }
    },
    {
      "type": "Feature",
      "properties": {
        "norad_id": 66664,
        "name": "SOYUZ-MS 28",
        "group": "stations",
        "lat": -20.934564971234284,
        "lon": -92.85635914873234,
        "alt_km": 420.5580983744585,
        "timestamp": "2025-12-27T11:23:18.614821+00:00",
        "meta_object_name": "SOYUZ-MS 28",
        "meta_object_id": "2025-275A",
        "meta_epoch": "2025-12-26T20:34:16.427712",
        "meta_mean_motion": 15.49855582,
        "meta_eccentricity": 0.000323,
        "meta_inclination": 51.6319,
        "meta_ra_of_asc_node": 72.5609,
        "meta_arg_of_pericenter": 307.0606,
        "meta_mean_anomaly": 53.0087,
        "meta_ephemeris_type": 0,
        "meta_classification_type": "U",
        "meta_norad_cat_id": 66664,
        "meta_element_set_no": 999,
        "meta_rev_at_epoch": 463,
        "meta_bstar": 0.00027092,
        "meta_mean_motion_dot": 0.00014958,
        "meta_mean_motion_ddot": 0,
        "tle_line1": "1 66664U 25275A   25360.85713458  .00014958  00000+0  27092-3 0  9995",
        "tle_line2": "2 66664  51.6319  72.5609 0003230 307.0606  53.0087 15.49855582  4632"
      },
      "geometry": {
        "type": "Point",
        "coordinates": [
          -92.85635914873234,
          -20.934564971234284
        ]
      }
    },
    {
      "type": "Feature",
      "properties": {
        "norad_id": 66906,
        "name": "1998-067XS",
        "group": "stations",
        "lat": -40.558478042735864,
        "lon": 26.609576442527107,
        "alt_km": 415.32247642114635,
        "timestamp": "2025-12-27T11:23:18.614833+00:00",
        "meta_object_name": "1998-067XS",
        "meta_object_id": "1998-067XS",
        "meta_epoch": "2025-12-26T15:31:52.021632",
        "meta_mean_motion": 15.5132596,
        "meta_eccentricity": 0.00026732,
        "meta_inclination": 51.6319,
        "meta_ra_of_asc_node": 73.4106,
        "meta_arg_of_pericenter": 274.6449,
        "meta_mean_anomaly": 85.4236,
        "meta_ephemeris_type": 0,
        "meta_classification_type": "U",
        "meta_norad_cat_id": 66906,
        "meta_element_set_no": 999,
        "meta_rev_at_epoch": 377,
        "meta_bstar": 0.00048784884,
        "meta_mean_motion_dot": 0.0002883,
        "meta_mean_motion_ddot": 0,
        "tle_line1": "1 66906U 98067XS  25360.64712988  .00028830  00000+0  48785-3 0  9993",
        "tle_line2": "2 66906  51.6319  73.4106 0002673 274.6449  85.4236 15.51325960  3771"
      },
      "geometry": {
        "type": "Point",
        "coordinates": [
          26.609576442527107,
          -40.558478042735864
        ]
      }
    },
    {
      "type": "Feature",
      "properties": {
        "norad_id": 66907,
        "name": "1998-067XT",
        "group": "stations",
        "lat": 25.30113616202813,
        "lon": 91.10951144970856,
        "alt_km": 403.6398153530263,
        "timestamp": "2025-12-27T11:23:18.614843+00:00",
        "meta_object_name": "1998-067XT",
        "meta_object_id": "1998-067XT",
        "meta_epoch": "2025-12-26T12:05:04.890048",
        "meta_mean_motion": 15.53165234,
        "meta_eccentricity": 0.0003816,
        "meta_inclination": 51.6314,
        "meta_ra_of_asc_node": 73.9516,
        "meta_arg_of_pericenter": 309.8325,
        "meta_mean_anomaly": 50.2329,
        "meta_ephemeris_type": 0,
        "meta_classification_type": "U",
        "meta_norad_cat_id": 66907,
        "meta_element_set_no": 999,
        "meta_rev_at_epoch": 375,
        "meta_bstar": 0.00096732,
        "meta_mean_motion_dot": 0.00061851,
        "meta_mean_motion_ddot": 0,
        "tle_line1": "1 66907U 98067XT  25360.50352882  .00061851  00000+0  96732-3 0  9997",
        "tle_line2": "2 66907  51.6314  73.9516 0003816 309.8325  50.2329 15.53165234  3750"
      },
      "geometry": {
        "type": "Point",
        "coordinates": [
          91.10951144970856,
          25.30113616202813
        ]
      }
    },
    {
      "type": "Feature",
      "properties": {
        "norad_id": 66908,
        "name": "1998-067XU",
        "group": "stations",
        "lat": 30.018381215806595,
        "lon": 96.34279919692943,
        "alt_km": 403.04713766074383,
        "timestamp": "2025-12-27T11:23:18.614860+00:00",
        "meta_object_name": "1998-067XU",
        "meta_object_id": "1998-067XU",
        "meta_epoch": "2025-12-26T18:14:01.549824",
        "meta_mean_motion": 15.53257933,
        "meta_eccentricity": 0.00038698,
        "meta_inclination": 51.6313,
        "meta_ra_of_asc_node": 72.6614,
        "meta_arg_of_pericenter": 309.5614,
        "meta_mean_anomaly": 50.5034,
        "meta_ephemeris_type": 0,
        "meta_classification_type": "U",
        "meta_norad_cat_id": 66908,
        "meta_element_set_no": 999,
        "meta_rev_at_epoch": 379,
        "meta_bstar": 0.00095802228,
        "meta_mean_motion_dot": 0.00061456,
        "meta_mean_motion_ddot": 0,
        "tle_line1": "1 66908U 98067XU  25360.75974016  .00061456  00000+0  95802-3 0  9992",
        "tle_line2": "2 66908  51.6313  72.6614 0003869 309.5614  50.5034 15.53257933  3799"
      },
      "geometry": {
        "type": "Point",
        "coordinates": [
          96.34279919692943,
          30.018381215806595
        ]
      }
    }
  ]
}